JILIN-1 GAOFEN 03D15    
1 51839U 22019R   26139.85706745  .00391692  63416-4  98410-3 0  9992
2 51839  97.3627 235.9878 0006620 225.5215 134.5520 15.95617650235601
JILIN-1 GAOFEN 03D12    
1 51841U 22019T   26140.51651057  .00350831  52240-4  79120-3 0  9995
2 51841  97.3631 236.6647 0007308 223.9985 136.0711 15.97596305235717
2022-023F               
1 51951U 22023F   26139.75139838  .00013670  00000+0  54666-3 0  9991
2 51951  63.4475  10.1522 0128437 343.7596  15.9416 15.18038396233395
MERIDIAN 10             
1 52145U 22030A   26140.05657331  .00000208  00000+0  00000+0 0  9995
2 52145  62.6766 143.8187 6776424 272.8763  17.6946  2.00615964 30464
OMNI-L1                 
1 52157U 22033A   26140.17210125  .00001033  00000+0  13467-3 0  9992
2 52157  97.8397 219.8957 0005689  31.6386 328.5168 14.82628532223305
ENMAP                   
1 52159U 22033C   26140.48725161  .00000462  00000+0  76188-4 0  9994
2 52159  97.9789 223.1298 0001469  86.2480 273.8897 14.74961912222574
ARCSAT-1                
1 52161U 22033E   26140.55222279  .00011985  00000+0  19462-3 0  9990
2 52161  97.2742 232.4314 0003359 307.0003  53.0942 15.52869489231411
GLOBAL-18               
1 52196U 22034B   26140.38617948  .00016147  00000+0  34504-3 0  9990
2 52196  52.9826  29.3795 0005123 149.8314 210.2987 15.45008646232660
GAOFEN-3 03             
1 52200U 22035A   26140.54787287  .00000161  00000+0  61996-4 0  9994
2 52200  98.4065 149.5292 0000993  81.6228 278.5075 14.42220189216863
DAQI-1                  
1 52257U 22039A   26140.55072606  .00000099  00000+0  31508-4 0  9999
2 52257  98.1482  79.9765 0003713   4.0003 356.1224 14.57657983217917
BRO-6                   
1 52422U 22047AE  26140.49953431  .00023152  00000+0  43224-3 0  9991
2 52422  97.3397 231.0629 0005566 161.8449 198.3002 15.48764162226864
JILIN-1 GAOFEN 3D27     
1 52444U 22048B   26140.46819993  .00071778  00000+0  61277-3 0  9992
2 52444  97.5688 252.0373 0005263 149.0249 211.1324 15.69274914225125
JILIN-1 GAOFEN 3D28     
1 52445U 22048C   26140.51284795  .00074944  00000+0  58415-3 0  9993
2 52445  97.5626 252.1445 0004218 167.0941 193.0430 15.71469240225179
VIGORIDE-3              
1 52760U 22057AE  26140.43420549  .00003723  00000+0  14357-3 0  9997
2 52760  97.6575 279.6863 0007707 213.5300 146.5451 15.26951721220927
ION SCV-006             
1 52761U 22057AF  26140.31373088  .00007284  00000+0  15815-3 0  9996
2 52761  97.6076 287.6205 0017071 210.7520 149.2729 15.44547380221810
SHERPA-AC1              
1 52763U 22057AH  26140.31551954  .00005142  00000+0  14991-3 0  9993
2 52763  97.6660 288.3954 0007735 181.2076 178.9150 15.35826143221425
OMNI-L2                 
1 52771U 22057AR  26140.49519639  .00000830  00000+0  11249-3 0  9997
2 52771  97.4728 204.7139 0008074  63.6959 296.5083 14.81285708216291
STEP CUBE LAB-II        
1 52897U 22065D   26140.51028032  .00000489  00000+0  10410-3 0  9999
2 52897  98.2197 284.5033 0009871 108.9881 251.2391 14.63252698207451
RANDEV                  
1 52898U 22065E   26140.51865449  .00000600  00000+0  12459-3 0  9991
2 52898  98.2180 284.8510 0009193 109.3139 250.9058 14.63638436207202
SNUGLITE-II             
1 52899U 22065F   26140.35666556  .00000571  00000+0  11746-3 0  9997
2 52899  98.2167 285.2433 0008761 109.2024 251.0127 14.64287930206926
MIMAN                   
1 52900U 22065G   26140.32678000  .00000330  00000+0  75685-4 0  9990
2 52900  98.2225 282.9560 0008879 110.6983 249.5170 14.61808393206377
STARLINK-4362           
1 53043U 22077A   26140.28667487  .00014517  00000+0  10101-2 0  9996
2 53043  97.4675 320.3401 0001941  97.7297 262.4151 15.05577050211688
LARES-2                 
1 53105U 22080A   26138.74380463 -.00000011  00000+0  00000+0 0  9992
2 53105  70.1687 315.4270 0005378 341.5227  18.5115  6.38965134 89782
GREENCUBE (IO-117)      
1 53109U 22080E   26140.48101737 -.00000003  00000+0  00000+0 0  9996
2 53109  70.1431 307.8842 0008838 296.2012  63.7739  6.42583336 90281
STARLINK-4410           
1 53204U 22084R   26140.40209634  .00023383  00000+0  10990-2 0  9990
2 53204  97.5979 201.0432 0001149  93.6608 266.4758 15.19596104210777
COSMOS 2558             
1 53323U 22089A   26140.52539201  .00065582  00000+0  55178-3 0  9991
2 53323  97.2258 243.5823 0002492 162.3905 197.7444 15.69665221213488
TECMS                   
1 53346U 22090A   26140.53435682  .00002468  00000+0  11280-3 0  9997
2 53346  97.3144 209.4246 0001118 295.3048  64.8072 15.21470402210602
DONGPO 02               
1 53452U 22098J   26140.54912913  .00060458  00000+0  51610-3 0  9995
2 53452  97.5493 269.4695 0002002 105.6789 254.4693 15.69332046210453
