OBJECT_NAME,OBJECT_ID,EPOCH,MEAN_MOTION,ECCENTRICITY,INCLINATION,RA_OF_ASC_NODE,ARG_OF_PERICENTER,MEAN_ANOMALY,EPHEMERIS_TYPE,CLASSIFICATION_TYPE,NORAD_CAT_ID,ELEMENT_SET_NO,REV_AT_EPOCH,BSTAR,MEAN_MOTION_DOT,MEAN_MOTION_DDOT
JILIN-1 GAOFEN 03D15,2022-019R,2026-05-19T20:34:10.627680,15.95617650,.000662,97.3627,235.9878,225.5215,134.5520,0,U,51839,999,23560,.9841E-3,.391692E-2,.63416E-4
JILIN-1 GAOFEN 03D12,2022-019T,2026-05-20T12:23:46.513248,15.97596305,.0007308,97.3631,236.6647,223.9985,136.0711,0,U,51841,999,23571,.7912E-3,.350831E-2,.5224E-4
2022-023F,2022-023F,2026-05-19T18:02:00.820032,15.18038396,.01284379,63.4475,10.1522,343.7596,15.9416,0,U,51951,999,23339,.54666311E-3,.1367E-3,0
MERIDIAN 10,2022-030A,2026-05-20T01:21:27.933984,2.00615964,.6776424,62.6766,143.8187,272.8763,17.6946,0,U,52145,999,3046,0,.208E-5,0
OMNI-L1,2022-033A,2026-05-20T04:07:49.548000,14.82628532,.00056897,97.8397,219.8957,31.6386,328.5168,0,U,52157,999,22330,.13467297E-3,.1033E-4,0
ENMAP,2022-033C,2026-05-20T11:41:38.539104,14.74961912,.0001469,97.9789,223.1298,86.2480,273.8897,0,U,52159,999,22257,.76188E-4,.462E-5,0
ARCSAT-1,2022-033E,2026-05-20T13:15:12.049056,15.52869489,.0003359,97.2742,232.4314,307.0003,53.0942,0,U,52161,999,23141,.19462E-3,.11985E-3,0
GLOBAL-18,2022-034B,2026-05-20T09:16:05.907072,15.45008646,.0005123,52.9826,29.3795,149.8314,210.2987,0,U,52196,999,23266,.34504E-3,.16147E-3,0
GAOFEN-3 03,2022-035A,2026-05-20T13:08:56.215968,14.42220189,.0000993,98.4065,149.5292,81.6228,278.5075,0,U,52200,999,21686,.61996E-4,.161E-5,0
DAQI-1,2022-039A,2026-05-20T13:13:02.731584,14.57657983,.0003713,98.1482,79.9765,4.0003,356.1224,0,U,52257,999,21791,.31508E-4,.99E-6,0
BRO-6,2022-047AE,2026-05-20T11:59:19.764384,15.48764162,.0005566,97.3397,231.0629,161.8449,198.3002,0,U,52422,999,22686,.43224E-3,.23152E-3,0
JILIN-1 GAOFEN 3D27,2022-048B,2026-05-20T11:14:12.473952,15.69274914,.0005263,97.5688,252.0373,149.0249,211.1324,0,U,52444,999,22512,.61277E-3,.71778E-3,0
JILIN-1 GAOFEN 3D28,2022-048C,2026-05-20T12:18:30.062880,15.71469240,.0004218,97.5626,252.1445,167.0941,193.0430,0,U,52445,999,22517,.58415E-3,.74944E-3,0
VIGORIDE-3,2022-057AE,2026-05-20T10:25:15.354336,15.26951721,.0007707,97.6575,279.6863,213.5300,146.5451,0,U,52760,999,22092,.14357E-3,.3723E-4,0
ION SCV-006,2022-057AF,2026-05-20T07:31:46.348032,15.44547380,.0017071,97.6076,287.6205,210.7520,149.2729,0,U,52761,999,22181,.15815E-3,.7284E-4,0
SHERPA-AC1,2022-057AH,2026-05-20T07:34:20.888256,15.35826143,.0007735,97.6660,288.3954,181.2076,178.9150,0,U,52763,999,22142,.14991E-3,.5142E-4,0
OMNI-L2,2022-057AR,2026-05-20T11:53:04.968096,14.81285708,.0008074,97.4728,204.7139,63.6959,296.5083,0,U,52771,999,21629,.11249E-3,.83E-5,0
STEP CUBE LAB-II,2022-065D,2026-05-20T12:14:48.219648,14.63252698,.0009871,98.2197,284.5033,108.9881,251.2391,0,U,52897,999,20745,.1041E-3,.489E-5,0
RANDEV,2022-065E,2026-05-20T12:26:51.747936,14.63638436,.0009193,98.2180,284.8510,109.3139,250.9058,0,U,52898,999,20720,.12459E-3,.6E-5,0
SNUGLITE-II,2022-065F,2026-05-20T08:33:35.904384,14.64287930,.0008761,98.2167,285.2433,109.2024,251.0127,0,U,52899,999,20692,.11746E-3,.571E-5,0
MIMAN,2022-065G,2026-05-20T07:50:33.792000,14.61808393,.0008879,98.2225,282.9560,110.6983,249.5170,0,U,52900,999,20637,.75685E-4,.33E-5,0
STARLINK-4362,2022-077A,2026-05-20T06:52:48.708768,15.05577050,.0001941,97.4675,320.3401,97.7297,262.4151,0,U,53043,999,21168,.10101E-2,.14517E-3,0
LARES-2,2022-080A,2026-05-18T17:51:04.720032,6.38965134,.00053787,70.1687,315.4270,341.5227,18.5115,0,U,53105,999,8978,0,-.11E-6,0
GREENCUBE (IO-117),2022-080E,2026-05-20T11:32:39.900768,6.42583336,.0008838,70.1431,307.8842,296.2012,63.7739,0,U,53109,999,9028,0,-.3E-7,0
STARLINK-4410,2022-084R,2026-05-20T09:39:01.123776,15.19596104,.0001149,97.5979,201.0432,93.6608,266.4758,0,U,53204,999,21077,.1099E-2,.23383E-3,0
COSMOS 2558,2022-089A,2026-05-20T12:36:33.869664,15.69665221,.0002492,97.2258,243.5823,162.3905,197.7444,0,U,53323,999,21348,.55178E-3,.65582E-3,0
TECMS,2022-090A,2026-05-20T12:49:28.429248,15.21470402,.0001118,97.3144,209.4246,295.3048,64.8072,0,U,53346,999,21060,.1128E-3,.2468E-4,0
DONGPO 02,2022-098J,2026-05-20T13:10:44.756832,15.69332046,.0002002,97.5493,269.4695,105.6789,254.4693,0,U,53452,999,21045,.5161E-3,.60458E-3,0
